0 FENGYUN 1C DEB
1 30124U 99025SD  13281.47323226  .00000899  00000-0  56037-3 0  1799
2 30124 098.9570 229.4960 0162232 242.1770 234.8461 14.01136225344005
0 FENGYUN 1C DEB
1 30124U 99025SD  13282.81727816  .00000696  00000-0  43980-3 0  1801
2 30124 098.9571 230.8154 0162249 238.4211 174.3610 14.01139535344194
0 FENGYUN 1C DEB
1 30124U 99025SD  13284.10498966  .00000835  00000-0  52256-3 0  1818
2 30124 098.9573 232.0794 0162301 234.8305 189.7286 14.01141454344375
0 FENGYUN 1C DEB
1 30124U 99025SD  13285.40086323  .00000769  00000-0  48318-3 0  1823
2 30124 098.9574 233.3515 0162305 231.2052 246.2946 14.01144713344558
0 FENGYUN 1C DEB
1 30124U 99025SD  13286.81642909  .00001009  00000-0  62568-3 0  1839
2 30124 098.9576 234.7409 0162375 227.2551 186.6193 14.01147991344757
0 FENGYUN 1C DEB
1 30124U 99025SD  13288.10384382  .00001423  00000-0  87072-3 0  1849
2 30124 098.9579 236.0045 0162477 223.6807 200.5198 14.01153248344931
0 FENGYUN 1C DEB
1 30124U 99025SD  13289.68656314  .00001344  00000-0  82393-3 0  1854
2 30124 098.9583 237.5579 0162541 219.2696 264.0235 14.01157305345153
0 FENGYUN 1C DEB
1 30124U 99025SD  13291.47122963  .00001169  00000-0  71958-3 0  1863
2 30124 098.9586 239.3099 0162603 214.2754 266.2177 14.01159232345400
0 FENGYUN 1C DEB
1 30124U 99025SD  13292.80994325  .00001332  00000-0  81601-3 0  1879
2 30124 098.9586 240.6242 0162686 210.5530 178.9417 14.01162542345591
0 FENGYUN 1C DEB
1 30124U 99025SD  13293.81448824  .00001385  00000-0  84756-3 0  1882
2 30124 098.9587 241.6104 0162765 207.7658 206.0612 14.01165699345739
0 FENGYUN 1C DEB
1 30124U 99025SD  13295.47097481  .00001468  00000-0  89675-3 0  1893
2 30124 098.9588 243.2367 0162869 203.1664 281.7233 14.01171208345968
